GPS BIIR-08             
1 27663U 03005A   26063.41781287  .00000000  00000+0  00000+0 0  9995
2 27663  54.9073 219.1290 0148732  52.7169 318.0933  2.00566272169219
GPS BIIR-11             
1 28190U 04009A   26063.42812631 -.00000020  00000+0  00000+0 0  9998
2 28190  54.9157 279.9188 0110961 169.0670   5.0968  2.00558098160848
GPS BIIR-13             
1 28474U 04045A   26063.59277231 -.00000093  00000+0  00000+0 0  9992
2 28474  55.1946 329.1116 0170845 312.8352  43.6266  2.00573414156329
GPS BIIR-14M            
1 28874U 05038A   26063.66238218 -.00000018  00000+0  00000+0 0  9996
2 28874  54.9628 277.3946 0128798 295.3469  71.7592  2.00572995149741
METEOSAT-9 (MSG-2)      
1 28912U 05049B   26063.09473407  .00000115  00000+0  00000+0 0  9996
2 28912   9.1243  55.1851 0001795 221.3911 325.1022  1.00277093  5941
GPS BIIR-16M            
1 29601U 06052A   26062.71518354 -.00000005  00000+0  00000+0 0  9995
2 29601  54.9574 218.1844 0087880  89.3488 271.6075  2.00551577141290
GPS BIIR-17M            
1 32260U 07047A   26063.02203272  .00000000  00000+0  00000+0 0  9994
2 32260  54.0154  84.3992 0163601  85.9536 275.9759  2.00560739134703
GPS BIIR-18M            
1 32384U 07062A   26063.33794595 -.00000018  00000+0  00000+0 0  9995
2 32384  55.1148 278.3662 0032924 160.6719 195.5030  2.00553526133402
GOES 14                 
1 35491U 09033A   26063.54628102  .00000118  00000+0  00000+0 0  9990
2 35491   1.4193  84.4200 0002261 298.8338 177.4573  1.00124457  5544
GOES 15                 
1 36411U 10008A   26063.64952453  .00000011  00000+0  00000+0 0  9999
2 36411   1.0095  85.1375 0001885  20.0724 354.4917  1.00269311 58591
GSAT0101 (GALILEO-PFM)  
1 37846U 11060A   26053.46432651 -.00000082  00000+0  00000+0 0  9992
2 37846  57.0318 344.8758 0003975 357.0591   2.9533  1.70475478 89166
GSAT0102 (GALILEO-FM2)  
1 37847U 11060B   26060.06318653 -.00000106  00000+0  00000+0 0  9999
2 37847  57.0301 344.6971 0005422 341.2092 154.1953  1.70475778 89286
LUCH 5A                 
1 37951U 11074B   26062.83352980 -.00000057  00000+0  00000+0 0  9993
2 37951   8.4858  75.3546 0004005 243.8626 309.5287  1.00275356 51997
METEOSAT-10 (MSG-3)     
1 38552U 12035B   26063.38239013 -.00000013  00000+0  00000+0 0  9993
2 38552   4.4237  61.4637 0002497 294.9203 303.6900  1.00277420 49808
SARSAT 13 (METOP-B)     
1 38771U 12049A   26063.79922917  .00000163  00000+0  94396-4 0  9999
2 38771  98.6652 117.3153 0001211 292.8179  67.2870 14.21442831698438
GPS BIIF-3              
1 38833U 12053A   26063.11837641  .00000006  00000+0  00000+0 0  9998
2 38833  53.5658 147.9052 0176935  64.7808 297.0848  2.00565801 97338
GSAT0103 (GALILEO-FM3)  
1 38857U 12055A   26061.13039064  .00000014  00000+0  00000+0 0  9998
2 38857  55.7369 104.4827 0005349 284.8926  75.1340  1.70473355 83189
