[{"OBJECT_NAME":"GPS BIIR-08","OBJECT_ID":"2003-005A","EPOCH":"2026-03-04T10:01:39.031968","MEAN_MOTION":2.00566272,"ECCENTRICITY":0.01487328,"INCLINATION":54.9073,"RA_OF_ASC_NODE":219.129,"ARG_OF_PERICENTER":52.7169,"MEAN_ANOMALY":318.0933,"EPHEMERIS_TYPE":0,"CLASSIFICATION_TYPE":"U","NORAD_CAT_ID":27663,"ELEMENT_SET_NO":999,"REV_AT_EPOCH":16921,"BSTAR":0,"MEAN_MOTION_DOT":0,"MEAN_MOTION_DDOT":0},{"OBJECT_NAME":"GPS BIIR-11","OBJECT_ID":"2004-009A","EPOCH":"2026-03-04T10:16:30.113184","MEAN_MOTION":2.00558098,"ECCENTRICITY":0.01109612,"INCLINATION":54.9157,"RA_OF_ASC_NODE":279.9188,"ARG_OF_PERICENTER":169.067,"MEAN_ANOMALY":5.0968,"EPHEMERIS_TYPE":0,"CLASSIFICATION_TYPE":"U","NORAD_CAT_ID":28190,"ELEMENT_SET_NO":999,"REV_AT_EPOCH":16084,"BSTAR":0,"MEAN_MOTION_DOT":-2.0e-7,"MEAN_MOTION_DDOT":0},{"OBJECT_NAME":"GPS BIIR-13","OBJECT_ID":"2004-045A","EPOCH":"2026-03-04T14:13:35.527584","MEAN_MOTION":2.00573414,"ECCENTRICITY":0.0170845,"INCLINATION":55.1946,"RA_OF_ASC_NODE":329.1116,"ARG_OF_PERICENTER":312.8352,"MEAN_ANOMALY":43.6266,"EPHEMERIS_TYPE":0,"CLASSIFICATION_TYPE":"U","NORAD_CAT_ID":28474,"ELEMENT_SET_NO":999,"REV_AT_EPOCH":15632,"BSTAR":0,"MEAN_MOTION_DOT":-9.3e-7,"MEAN_MOTION_DDOT":0},{"OBJECT_NAME":"GPS BIIR-14M","OBJECT_ID":"2005-038A","EPOCH":"2026-03-04T15:53:49.820352","MEAN_MOTION":2.00572995,"ECCENTRICITY":0.0128798,"INCLINATION":54.9628,"RA_OF_ASC_NODE":277.3946,"ARG_OF_PERICENTER":295.3469,"MEAN_ANOMALY":71.7592,"EPHEMERIS_TYPE":0,"CLASSIFICATION_TYPE":"U","NORAD_CAT_ID":28874,"ELEMENT_SET_NO":999,"REV_AT_EPOCH":14974,"BSTAR":0,"MEAN_MOTION_DOT":-1.8e-7,"MEAN_MOTION_DDOT":0},{"OBJECT_NAME":"METEOSAT-9 (MSG-2)","OBJECT_ID":"2005-049B","EPOCH":"2026-03-04T02:16:25.023648","MEAN_MOTION":1.00277093,"ECCENTRICITY":0.00017958,"INCLINATION":9.1243,"RA_OF_ASC_NODE":55.1851,"ARG_OF_PERICENTER":221.3911,"MEAN_ANOMALY":325.1022,"EPHEMERIS_TYPE":0,"CLASSIFICATION_TYPE":"U","NORAD_CAT_ID":28912,"ELEMENT_SET_NO":999,"REV_AT_EPOCH":594,"BSTAR":0,"MEAN_MOTION_DOT":1.15e-6,"MEAN_MOTION_DDOT":0},{"OBJECT_NAME":"GPS BIIR-16M","OBJECT_ID":"2006-052A","EPOCH":"2026-03-03T17:09:51.857856","MEAN_MOTION":2.00551577,"ECCENTRICITY":0.008788,"INCLINATION":54.9574,"RA_OF_ASC_NODE":218.1844,"ARG_OF_PERICENTER":89.3488,"MEAN_ANOMALY":271.6075,"EPHEMERIS_TYPE":0,"CLASSIFICATION_TYPE":"U","NORAD_CAT_ID":29601,"ELEMENT_SET_NO":999,"REV_AT_EPOCH":14129,"BSTAR":0,"MEAN_MOTION_DOT":-5.0e-8,"MEAN_MOTION_DDOT":0},{"OBJECT_NAME":"GPS BIIR-17M","OBJECT_ID":"2007-047A","EPOCH":"2026-03-04T00:31:43.627008","MEAN_MOTION":2.00560739,"ECCENTRICITY":0.01636019,"INCLINATION":54.0154,"RA_OF_ASC_NODE":84.3992,"ARG_OF_PERICENTER":85.9536,"MEAN_ANOMALY":275.9759,"EPHEMERIS_TYPE":0,"CLASSIFICATION_TYPE":"U","NORAD_CAT_ID":32260,"ELEMENT_SET_NO":999,"REV_AT_EPOCH":13470,"BSTAR":0,"MEAN_MOTION_DOT":0,"MEAN_MOTION_DDOT":0},{"OBJECT_NAME":"GPS BIIR-18M","OBJECT_ID":"2007-062A","EPOCH":"2026-03-04T08:06:38.530080","MEAN_MOTION":2.00553526,"ECCENTRICITY":0.00329248,"INCLINATION":55.1148,"RA_OF_ASC_NODE":278.3662,"ARG_OF_PERICENTER":160.6719,"MEAN_ANOMALY":195.503,"EPHEMERIS_TYPE":0,"CLASSIFICATION_TYPE":"U","NORAD_CAT_ID":32384,"ELEMENT_SET_NO":999,"REV_AT_EPOCH":13340,"BSTAR":0,"MEAN_MOTION_DOT":-1.8e-7,"MEAN_MOTION_DDOT":0},{"OBJECT_NAME":"GOES 14","OBJECT_ID":"2009-033A","EPOCH":"2026-03-04T13:06:38.680128","MEAN_MOTION":1.00124457,"ECCENTRICITY":0.0002261,"INCLINATION":1.4193,"RA_OF_ASC_NODE":84.42,"ARG_OF_PERICENTER":298.8338,"MEAN_ANOMALY":177.4573,"EPHEMERIS_TYPE":0,"CLASSIFICATION_TYPE":"U","NORAD_CAT_ID":35491,"ELEMENT_SET_NO":999,"REV_AT_EPOCH":554,"BSTAR":0,"MEAN_MOTION_DOT":1.18e-6,"MEAN_MOTION_DDOT":0},{"OBJECT_NAME":"GOES 15","OBJECT_ID":"2010-008A","EPOCH":"2026-03-04T15:35:18.919392","MEAN_MOTION":1.00269311,"ECCENTRICITY":0.0001885,"INCLINATION":1.0095,"RA_OF_ASC_NODE":85.1375,"ARG_OF_PERICENTER":20.0724,"MEAN_ANOMALY":354.4917,"EPHEMERIS_TYPE":0,"CLASSIFICATION_TYPE":"U","NORAD_CAT_ID":36411,"ELEMENT_SET_NO":999,"REV_AT_EPOCH":5859,"BSTAR":0,"MEAN_MOTION_DOT":1.1e-7,"MEAN_MOTION_DDOT":0},{"OBJECT_NAME":"GSAT0101 (GALILEO-PFM)","OBJECT_ID":"2011-060A","EPOCH":"2026-02-22T11:08:37.810464","MEAN_MOTION":1.70475478,"ECCENTRICITY":0.00039756,"INCLINATION":57.0318,"RA_OF_ASC_NODE":344.8758,"ARG_OF_PERICENTER":357.0591,"MEAN_ANOMALY":2.9533,"EPHEMERIS_TYPE":0,"CLASSIFICATION_TYPE":"U","NORAD_CAT_ID":37846,"ELEMENT_SET_NO":999,"REV_AT_EPOCH":8916,"BSTAR":0,"MEAN_MOTION_DOT":-8.2e-7,"MEAN_MOTION_DDOT":0},{"OBJECT_NAME":"GSAT0102 (GALILEO-FM2)","OBJECT_ID":"2011-060B","EPOCH":"2026-03-01T01:30:59.316192","MEAN_MOTION":1.70475778,"ECCENTRICITY":0.00054225,"INCLINATION":57.0301,"RA_OF_ASC_NODE":344.6971,"ARG_OF_PERICENTER":341.2092,"MEAN_ANOMALY":154.1953,"EPHEMERIS_TYPE":0,"CLASSIFICATION_TYPE":"U","NORAD_CAT_ID":37847,"ELEMENT_SET_NO":999,"REV_AT_EPOCH":8928,"BSTAR":0,"MEAN_MOTION_DOT":-1.06e-6,"MEAN_MOTION_DDOT":0},{"OBJECT_NAME":"LUCH 5A","OBJECT_ID":"2011-074B","EPOCH":"2026-03-03T20:00:16.974720","MEAN_MOTION":1.00275356,"ECCENTRICITY":0.00040051,"INCLINATION":8.4858,"RA_OF_ASC_NODE":75.3546,"ARG_OF_PERICENTER":243.8626,"MEAN_ANOMALY":309.5287,"EPHEMERIS_TYPE":0,"CLASSIFICATION_TYPE":"U","NORAD_CAT_ID":37951,"ELEMENT_SET_NO":999,"REV_AT_EPOCH":5199,"BSTAR":0,"MEAN_MOTION_DOT":-5.7e-7,"MEAN_MOTION_DDOT":0},{"OBJECT_NAME":"METEOSAT-10 (MSG-3)","OBJECT_ID":"2012-035B","EPOCH":"2026-03-04T09:10:38.507232","MEAN_MOTION":1.0027742,"ECCENTRICITY":0.00024971,"INCLINATION":4.4237,"RA_OF_ASC_NODE":61.4637,"ARG_OF_PERICENTER":294.9203,"MEAN_ANOMALY":303.69,"EPHEMERIS_TYPE":0,"CLASSIFICATION_TYPE":"U","NORAD_CAT_ID":38552,"ELEMENT_SET_NO":999,"REV_AT_EPOCH":4980,"BSTAR":0,"MEAN_MOTION_DOT":-1.3e-7,"MEAN_MOTION_DDOT":0},{"OBJECT_NAME":"SARSAT 13 (METOP-B)","OBJECT_ID":"2012-049A","EPOCH":"2026-03-04T19:10:53.400288","MEAN_MOTION":14.21442831,"ECCENTRICITY":0.0001211,"INCLINATION":98.6652,"RA_OF_ASC_NODE":117.3153,"ARG_OF_PERICENTER":292.8179,"MEAN_ANOMALY":67.287,"EPHEMERIS_TYPE":0,"CLASSIFICATION_TYPE":"U","NORAD_CAT_ID":38771,"ELEMENT_SET_NO":999,"REV_AT_EPOCH":69843,"BSTAR":9.4396e-5,"MEAN_MOTION_DOT":1.63e-6,"MEAN_MOTION_DDOT":0},{"OBJECT_NAME":"GPS BIIF-3","OBJECT_ID":"2012-053A","EPOCH":"2026-03-04T02:50:27.721824","MEAN_MOTION":2.00565801,"ECCENTRICITY":0.01769354,"INCLINATION":53.5658,"RA_OF_ASC_NODE":147.9052,"ARG_OF_PERICENTER":64.7808,"MEAN_ANOMALY":297.0848,"EPHEMERIS_TYPE":0,"CLASSIFICATION_TYPE":"U","NORAD_CAT_ID":38833,"ELEMENT_SET_NO":999,"REV_AT_EPOCH":9733,"BSTAR":0,"MEAN_MOTION_DOT":6.0e-8,"MEAN_MOTION_DDOT":0},{"OBJECT_NAME":"GSAT0103 (GALILEO-FM3)","OBJECT_ID":"2012-055A","EPOCH":"2026-03-02T03:07:45.751296","MEAN_MOTION":1.70473355,"ECCENTRICITY":0.0005349,"INCLINATION":55.7369,"RA_OF_ASC_NODE":104.4827,"ARG_OF_PERICENTER":284.8926,"MEAN_ANOMALY":75.134,"EPHEMERIS_TYPE":0,"CLASSIFICATION_TYPE":"U","NORAD_CAT_ID":38857,"ELEMENT_SET_NO":999,"REV_AT_EPOCH":8318,"BSTAR":0,"MEAN_MOTION_DOT":1.4e-7,"MEAN_MOTION_DDOT":0}]
